
ONEWEB-0054
1 45158U 20008AD  26175.10777726 -.00000504  00000+0 -14797-2 0  9991
2 45158  87.8838  34.8896 0001866  84.0112 276.1228 13.10339266308937

ONEWEB-0055
1 45443U 20020V   26175.26929337  .00000011  00000+0 -36650-5 0  9993
2 45443  87.8889  19.6573 0001798  89.7543 270.3791 13.11415736303548

ONEWEB-0056
1 45159U 20008AE  26175.15516299 -.00004894  00000+0 -14052-1 0  9992
2 45159  87.8809  34.8714 0001390  96.2198 263.9088 13.10429259309094

ONEWEB-0057
1 45160U 20008AF  26175.17240079 -.00000588  00000+0 -17205-2 0  9996
2 45160  87.8830  34.8820 0002067  70.4444 289.6907 13.10387974309269

ONEWEB-0058
1 45161U 20008AG  26175.15920302 -.00000084  00000+0 -27741-3 0  9997
2 45161  87.8818  34.8899 0001604  88.8336 271.2975 13.10370500309338

ONEWEB-0059
1 45162U 20008AH  26175.15544937 -.00005191  00000+0 -14908-1 0  9997
2 45162  87.8817  34.8898 0002063  73.5793 286.5561 13.10409711309231

ONEWEB-0060
1 45455U 20020AH  26175.26857123  .00000065  00000+0  14633-3 0  9992
2 45455  87.8884  19.6565 0000943  62.8724 297.2500 13.11413886303473

ONEWEB-0061
1 45428U 20020E   26175.26419706  .00000210  00000+0  55733-3 0  9991
2 45428  87.8890  19.6481 0001780  87.3042 272.8289 13.11414152303551

ONEWEB-0062
1 45163U 20008AJ  26175.10255378 -.00001360  00000+0 -39341-2 0  9994
2 45163  87.8833  34.8884 0001305  95.7599 264.3677 13.10351593309093

ONEWEB-0063
1 45448U 20020AA  26175.26955489 -.00000001  00000+0 -37796-4 0  9996
2 45448  87.8891  19.6588 0002096  83.9245 276.2121 13.11413943303628

ONEWEB-0064
1 45433U 20020K   26175.28128545 -.00000425  00000+0 -12347-2 0  9990
2 45433  87.8886  19.6538 0001836  92.3105 267.8233 13.11416074303618

ONEWEB-0065
1 45164U 20008AK  26175.13648559  .00005247  00000+0  15006-1 0  9992
2 45164  87.8842  34.8904 0002195  71.9011 288.2356 13.10282767308791

ONEWEB-0066
1 45424U 20020A   26175.08970531  .00000511  00000+0  14066-2 0  9992
2 45424  87.8882  19.6969 0001656  83.9977 276.1340 13.11417365303587

ONEWEB-0067
1 45425U 20020B   26175.28012929 -.00000442  00000+0 -12830-2 0  9995
2 45425  87.8905  19.5815 0001823  81.3770 278.7564 13.11423676303669

ONEWEB-0068
1 45446U 20020Y   26175.09635531  .00000533  00000+0  14685-2 0  9996
2 45446  87.8891  19.6887 0001670  81.7999 278.3318 13.11416437303506

ONEWEB-0069
1 45430U 20020G   26175.09492904  .00000364  00000+0  99110-3 0  9993
2 45430  87.8884  19.6946 0001434 104.5441 255.5846 13.11415359303573

ONEWEB-0080
1 45426U 20020C   26175.27972629 -.00000427  00000+0 -12417-2 0  9991
2 45426  87.8897  19.6556 0001694  96.5146 263.6175 13.11414575303630

ONEWEB-0081
1 45429U 20020F   26175.09309561  .00000178  00000+0  46743-3 0  9994
2 45429  87.8883  19.6915 0001578  79.2623 280.8683 13.11420688303644

ONEWEB-0082
1 45452U 20020AE  26175.27606197 -.00000272  00000+0 -80231-3 0  9992
2 45452  87.8890  19.6482 0001693  71.9524 288.1789 13.11414510303605

ONEWEB-0083
1 45435U 20020M   26175.07458093 -.00000025  00000+0 -10627-3 0  9999
2 45435  87.8892  19.6891 0001766  88.7856 271.3474 13.11419384303572

ONEWEB-0085
1 45438U 20020Q   26175.07430591 -.00000091  00000+0 -29121-3 0  9997
2 45438  87.8886  19.6956 0001831  87.9229 272.2109 13.11418592303573

ONEWEB-0086
1 45456U 20020AJ  26175.09466193  .00000291  00000+0  78567-3 0  9994
2 45456  87.8894  19.6873 0001233  99.7049 260.4219 13.11415870303518

ONEWEB-0087
1 45451U 20020AD  26175.27944748 -.00000384  00000+0 -11202-2 0  9993
2 45451  87.8899  19.6315 0001589  80.7779 279.3528 13.11415124303517

ONEWEB-0088
1 45457U 20020AK  26175.07273362 -.00000266  00000+0 -78626-3 0  9997
2 45457  87.8900  19.6650 0002098  77.9080 282.2283 13.11418366303441

ONEWEB-0090
1 45427U 20020D   26175.07966948  .00000160  00000+0  41440-3 0  9998
2 45427  87.8895  19.7003 0001803  88.9492 271.1842 13.11418375303578

ONEWEB-0092
1 45437U 20020P   26175.09647034 -.00000011  00000+0 -67709-4 0  9997
2 45437  87.8889  19.6846 0002098  82.9199 277.2168 13.11414393303698

ONEWEB-0093
1 45444U 20020W   26175.09663130  .00002842  00000+0  79819-2 0  9995
2 45444  87.8892  19.6847 0002073  69.4260 290.7090 13.11404692303586

ONEWEB-0094
1 45450U 20020AC  26175.26500523  .00000001  00000+0 -29688-4 0  9994
2 45450  87.9140   4.4414 0001650  90.7012 269.4308 13.17647099307242

ONEWEB-0095
1 45436U 20020N   26175.06608657 -.00000344  00000+0 -10065-2 0  9991
2 45436  87.8888  19.6993 0002556  89.1735 270.9686 13.11416948303573

ONEWEB-0096
1 45439U 20020R   26175.07612287  .00000035  00000+0  62452-4 0  9993
2 45439  87.8890  19.6915 0001937  88.1369 271.9981 13.11416982303563

ONEWEB-0098
1 45442U 20020U   26175.06171694 -.00000490  00000+0 -14185-2 0  9993
2 45442  87.8889  19.6999 0001786  89.4694 270.6639 13.11418024303547

ONEWEB-0101
1 48049U 21025H   26175.30423998  .00000289  00000+0  75773-3 0  9994
2 48049  87.8959 318.8088 0001836 102.3978 257.7357 13.13471215254439

ONEWEB-0102
1 47258U 20100A   26175.22402165 -.00000007  00000+0 -55561-4 0  9996
2 47258  87.8941 349.2752 0001690 101.3163 258.8156 13.12442310265658

ONEWEB-0107
1 48048U 21025G   26175.11295289 -.00000267  00000+0 -76703-3 0  9994
2 48048  87.8970 318.8319 0002072 101.5273 258.6089 13.13470191254434

ONEWEB-0108
1 48076U 21025AL  26175.16035083  .00000448  00000+0  11927-2 0  9999
2 48076  87.8971 318.8257 0001819  90.8768 269.2569 13.13470813254560

ONEWEB-0109
1 47259U 20100B   26175.23249466  .00000421  00000+0  11352-2 0  9997
2 47259  87.8950 349.2574 0001881  97.1442 262.9900 13.12443392265480

ONEWEB-0110
1 47260U 20100C   26175.18335590  .00000058  00000+0  12683-3 0  9992
2 47260  87.8952 349.2513 0001555  94.5668 265.5639 13.12440482265649

ONEWEB-0111
1 47261U 20100D   26175.21385111 -.00000192  00000+0 -56937-3 0  9992
2 47261  87.8951 349.2641 0001715  90.8482 269.2844 13.12443672265487

ONEWEB-0112
1 48051U 21025K   26175.11802868 -.00000343  00000+0 -97482-3 0  9997
2 48051  87.8972 318.8292 0001932 105.6148 254.5194 13.13470360254508

ONEWEB-0113
1 48050U 21025J   26175.09784568  .00000080  00000+0  18403-3 0  9991
2 48050  87.8966 318.7594 0001822  93.9681 266.1656 13.13893280254516

ONEWEB-0114
1 47262U 20100E   26175.01565106  .00000426  00000+0  11499-2 0  9996
2 47262  87.8953 349.3012 0001927  97.0502 263.0845 13.12445646265419

ONEWEB-0115
1 48042U 21025A   26175.10787916 -.00000185  00000+0 -54226-3 0  9995
2 48042  87.8965 318.8452 0001779  96.7364 263.3968 13.13469736254509

ONEWEB-0116
1 48046U 21025E   26175.13496132 -.00000167  00000+0 -49327-3 0  9995
2 48046  87.8966 318.8342 0001750  97.0389 263.0939 13.13469074254568

ONEWEB-0117
1 47263U 20100F   26175.23587852  .00000405  00000+0  10894-2 0  9998
2 47263  87.8951 349.2481 0001787  93.1183 267.0150 13.12444198265451

ONEWEB-0118
1 47264U 20100G   26175.19351711 -.00000225  00000+0 -66218-3 0  9991
2 47264  87.8949 349.2588 0002133  90.2436 269.8937 13.12442366265641

ONEWEB-0119
1 47265U 20100H   26175.21893296 -.00000151  00000+0 -45386-3 0  9995
2 47265  87.8941 349.2701 0001837  92.6351 267.4988 13.12444206265626

ONEWEB-0120
1 47266U 20100J   26175.01407983  .00000493  00000+0  13349-2 0  9998
2 47266  87.8941 349.3121 0001904  97.0437 263.0908 13.12444190265629

ONEWEB-0121
1 47267U 20100K   26175.23079053  .00000248  00000+0  65472-3 0  9999
2 47267  87.8950 349.2557 0001599  84.1941 275.9370 13.12444660265569

ONEWEB-0122
1 47268U 20100L   26175.22487303  .00000126  00000+0  31560-3 0  9996
2 47268  87.8954 349.2615 0001797  97.8732 262.2600 13.12444157265474

ONEWEB-0123
1 47269U 20100M   26175.22062085 -.00000219  00000+0 -64388-3 0  9992
2 47269  87.8939 349.2688 0001919  91.2612 268.8736 13.12444143265612

ONEWEB-0124
1 47270U 20100N   26175.21045316 -.00000552  00000+0 -15711-2 0  9996
2 47270  87.8940 349.2738 0001772  89.8694 270.2637 13.12443411265492

ONEWEB-0125
1 47271U 20100P   26175.18843386 -.00000155  00000+0 -46609-3 0  9996
2 47271  87.8953 349.2622 0001850  82.1502 277.9837 13.12440746265551

ONEWEB-0126
1 47272U 20100Q   26175.20891261 -.00000299  00000+0 -86651-3 0  9995
2 47272  87.8945 349.2736 0001928  95.3463 264.7885 13.12443378265626

ONEWEB-0127
1 47273U 20100R   26175.17488992  .00000286  00000+0  75830-3 0  9996
2 47273  87.8938 349.2786 0001893  96.1109 264.0235 13.12441078265640

ONEWEB-0128
1 47274U 20100S   26175.19690370 -.00000453  00000+0 -12953-2 0  9998
2 47274  87.8943 349.2879 0001504  94.5850 265.5450 13.12441172265666

ONEWEB-0129
1 47275U 20100T   26175.17658195  .00000340  00000+0  90953-3 0  9996
2 47275  87.8949 349.2665 0002690 111.8618 248.2797 13.12443222265590

ONEWEB-0130
1 47276U 20100U   26175.20368153 -.00000608  00000+0 -17252-2 0  9992
2 47276  87.8948 349.2567 0001827  95.8652 264.2685 13.12442447265560

ONEWEB-0131
1 47277U 20100V   26175.20030242 -.00000418  00000+0 -11961-2 0  9998
2 47277  87.8940 349.2744 0001633  94.3564 265.7752 13.12443921265605

ONEWEB-0132
1 47278U 20100W   26175.22909599  .00000216  00000+0  56564-3 0  9994
2 47278  87.8941 349.2711 0001754  93.3668 266.7662 13.12445178265505

ONEWEB-0133
1 47279U 20100X   26175.24590671  .00000430  00000+0  11589-2 0  9999
2 47279  87.8954 349.2446 0001665  93.2764 266.8555 13.12441580265664

ONEWEB-0134
1 47280U 20100Y   26175.21553185 -.00000203  00000+0 -59827-3 0  9995
2 47280  87.8955 349.2478 0001764 101.0385 259.0942 13.12441833265631

ONEWEB-0135
1 47281U 20100Z   26175.18674037 -.00000042  00000+0 -15197-3 0  9995
2 47281  87.8941 349.2752 0001641 100.7462 259.3852 13.12441070265656

ONEWEB-0136
1 47282U 20100AA  26175.20537062 -.00000519  00000+0 -14795-2 0  9996
2 47282  87.8947 349.2534 0001757 102.7338 257.3987 13.12440784265583

ONEWEB-0137
1 47283U 20100AB  26175.23927017  .00000472  00000+0  12762-2 0  9991
2 47283  87.8954 349.2573 0001919  89.5814 270.5534 13.12442072265493

ONEWEB-0138
1 47284U 20100AC  26175.21723460 -.00000233  00000+0 -68214-3 0  9997
2 47284  87.8952 349.2668 0001827  99.8596 260.2739 13.12444663265576
